{
  "type": "FeatureCollection",
  "features": [
    {
      "type": "Feature",
      "properties": {
        "norad_id": 44333,
        "name": "AT&T T-16",
        "group": "intelsat",
        "lat": -0.03660327537142146,
        "lon": -59.935632123837664,
        "alt_km": 35794.00420275949,
        "timestamp": "2025-12-21T20:41:07.653227+00:00",
        "meta_object_name": "AT&T T-16",
        "meta_object_id": "2019-034A",
        "meta_epoch": "2025-12-20T14:27:46.526976",
        "meta_mean_motion": 1.00263761,
        "meta_eccentricity": 0.0001552,
        "meta_inclination": 0.019,
        "meta_ra_of_asc_node": 58.344,
        "meta_arg_of_pericenter": 92.0528,
        "meta_mean_anomaly": 55.1236,
        "meta_ephemeris_type": 0,
        "meta_classification_type": "U",
        "meta_norad_cat_id": 44333,
        "meta_element_set_no": 999,
        "meta_rev_at_epoch": 2384,
        "meta_bstar": 0,
        "meta_mean_motion_dot": -9.1e-07,
        "meta_mean_motion_ddot": 0,
        "tle_line1": "1 44333U 19034A   25354.60262184 -.00000091  00000+0  00000+0 0  9991",
        "tle_line2": "2 44333   0.0190  58.3440 0001552  92.0528  55.1236  1.00263761 23847"
      },
      "geometry": {
        "type": "Point",
        "coordinates": [
          -59.935632123837664,
          -0.03660327537142146
        ]
      }
    },
    {
      "type": "Feature",
      "properties": {
        "norad_id": 44476,
        "name": "INTELSAT 39 (IS-39)",
        "group": "intelsat",
        "lat": 0.00799216358708005,
        "lon": 102.88640835378483,
        "alt_km": 35782.56501577782,
        "timestamp": "2025-12-21T20:41:07.653238+00:00",
        "meta_object_name": "INTELSAT 39 (IS-39)",
        "meta_object_id": "2019-049B",
        "meta_epoch": "2025-12-21T11:46:48.398880",
        "meta_mean_motion": 1.00270807,
        "meta_eccentricity": 0.0001101,
        "meta_inclination": 0.0011,
        "meta_ra_of_asc_node": 79.4939,
        "meta_arg_of_pericenter": 59.3805,
        "meta_mean_anomaly": 190.0826,
        "meta_ephemeris_type": 0,
        "meta_classification_type": "U",
        "meta_norad_cat_id": 44476,
        "meta_element_set_no": 999,
        "meta_rev_at_epoch": 2334,
        "meta_bstar": 0,
        "meta_mean_motion_dot": 5.6e-07,
        "meta_mean_motion_ddot": 0,
        "tle_line1": "1 44476U 19049B   25355.49083795  .00000056  00000+0  00000+0 0  9992",
        "tle_line2": "2 44476   0.0011  79.4939 0001101  59.3805 190.0826  1.00270807 23346"
      },
      "geometry": {
        "type": "Point",
        "coordinates": [
          102.88640835378483,
          0.00799216358708005
        ]
      }
    },
    {
      "type": "Feature",
      "properties": {
        "norad_id": 46114,
        "name": "GALAXY 30 (G-30)",
        "group": "intelsat",
        "lat": -0.042478718385001245,
        "lon": -84.02280874113475,
        "alt_km": 35777.018503801,
        "timestamp": "2025-12-21T20:41:07.653248+00:00",
        "meta_object_name": "GALAXY 30 (G-30)",
        "meta_object_id": "2020-056C",
        "meta_epoch": "2025-12-21T00:37:13.930752",
        "meta_mean_motion": 1.00273357,
        "meta_eccentricity": 0.00020294,
        "meta_inclination": 0.0178,
        "meta_ra_of_asc_node": 349.0054,
        "meta_arg_of_pericenter": 282.3653,
        "meta_mean_anomaly": 62.8096,
        "meta_ephemeris_type": 0,
        "meta_classification_type": "U",
        "meta_norad_cat_id": 46114,
        "meta_element_set_no": 999,
        "meta_rev_at_epoch": 1950,
        "meta_bstar": 0,
        "meta_mean_motion_dot": 6e-07,
        "meta_mean_motion_ddot": 0,
        "tle_line1": "1 46114U 20056C   25355.02585568  .00000060  00000+0  00000+0 0  9992",
        "tle_line2": "2 46114   0.0178 349.0054 0002029 282.3653  62.8096  1.00273357 19505"
      },
      "geometry": {
        "type": "Point",
        "coordinates": [
          -84.02280874113475,
          -0.042478718385001245
        ]
      }
    },
    {
      "type": "Feature",
      "properties": {
        "norad_id": 54026,
        "name": "GALAXY 33 (G-33)",
        "group": "intelsat",
        "lat": -0.03090911793412828,
        "lon": -92.05085331470164,
        "alt_km": 35779.50046287151,
        "timestamp": "2025-12-21T20:41:07.653258+00:00",
        "meta_object_name": "GALAXY 33 (G-33)",
        "meta_object_id": "2022-128A",
        "meta_epoch": "2025-12-21T09:30:38.534112",
        "meta_mean_motion": 1.00271517,
        "meta_eccentricity": 0.00015631,
        "meta_inclination": 0.018,
        "meta_ra_of_asc_node": 50.6658,
        "meta_arg_of_pericenter": 219.4803,
        "meta_mean_anomaly": 189.7317,
        "meta_ephemeris_type": 0,
        "meta_classification_type": "U",
        "meta_norad_cat_id": 54026,
        "meta_element_set_no": 999,
        "meta_rev_at_epoch": 1196,
        "meta_bstar": 0,
        "meta_mean_motion_dot": 1.02e-06,
        "meta_mean_motion_ddot": 0,
        "tle_line1": "1 54026U 22128A   25355.39627933  .00000102  00000+0  00000+0 0  9995",
        "tle_line2": "2 54026   0.0180  50.6658 0001563 219.4803 189.7317  1.00271517 11967"
      },
      "geometry": {
        "type": "Point",
        "coordinates": [
          -92.05085331470164,
          -0.03090911793412828
        ]
      }
    },
    {
      "type": "Feature",
      "properties": {
        "norad_id": 54027,
        "name": "GALAXY 34 (G-34)",
        "group": "intelsat",
        "lat": -0.04902121330585971,
        "lon": -88.00406027158589,
        "alt_km": 35779.64835168699,
        "timestamp": "2025-12-21T20:41:07.653269+00:00",
        "meta_object_name": "GALAXY 34 (G-34)",
        "meta_object_id": "2022-128B",
        "meta_epoch": "2025-12-21T09:30:38.534112",
        "meta_mean_motion": 1.0026817,
        "meta_eccentricity": 0.00017605,
        "meta_inclination": 0.0237,
        "meta_ra_of_asc_node": 17.5979,
        "meta_arg_of_pericenter": 248.2874,
        "meta_mean_anomaly": 198.0421,
        "meta_ephemeris_type": 0,
        "meta_classification_type": "U",
        "meta_norad_cat_id": 54027,
        "meta_element_set_no": 999,
        "meta_rev_at_epoch": 1213,
        "meta_bstar": 0,
        "meta_mean_motion_dot": 0,
        "meta_mean_motion_ddot": 0,
        "tle_line1": "1 54027U 22128B   25355.39627933  .00000000  00000+0  00000+0 0  9993",
        "tle_line2": "2 54027   0.0237  17.5979 0001760 248.2874 198.0421  1.00268170 12136"
      },
      "geometry": {
        "type": "Point",
        "coordinates": [
          -88.00406027158589,
          -0.04902121330585971
        ]
      }
    },
    {
      "type": "Feature",
      "properties": {
        "norad_id": 54243,
        "name": "GALAXY 31 (G-31)",
        "group": "intelsat",
        "lat": -0.02110749129927225,
        "lon": -80.05173282757987,
        "alt_km": 35780.34201139276,
        "timestamp": "2025-12-21T20:41:07.653280+00:00",
        "meta_object_name": "GALAXY 31 (G-31)",
        "meta_object_id": "2022-153A",
        "meta_epoch": "2025-12-21T07:29:09.697056",
        "meta_mean_motion": 1.00271234,
        "meta_eccentricity": 0.00013856,
        "meta_inclination": 0.0226,
        "meta_ra_of_asc_node": 88.887,
        "meta_arg_of_pericenter": 190.6923,
        "meta_mean_anomaly": 161.8441,
        "meta_ephemeris_type": 0,
        "meta_classification_type": "U",
        "meta_norad_cat_id": 54243,
        "meta_element_set_no": 999,
        "meta_rev_at_epoch": 534,
        "meta_bstar": 0,
        "meta_mean_motion_dot": 3.6e-07,
        "meta_mean_motion_ddot": 0,
        "tle_line1": "1 54243U 22153A   25355.31191779  .00000036  00000+0  00000+0 0  9996",
        "tle_line2": "2 54243   0.0226  88.8870 0001385 190.6923 161.8441  1.00271234  5343"
      },
      "geometry": {
        "type": "Point",
        "coordinates": [
          -80.05173282757987,
          -0.02110749129927225
        ]
      }
    },
    {
      "type": "Feature",
      "properties": {
        "norad_id": 54244,
        "name": "GALAXY 32 (G-32)",
        "group": "intelsat",
        "lat": -0.021381015018914182,
        "lon": -50.05483142384286,
        "alt_km": 35778.37343650787,
        "timestamp": "2025-12-21T20:41:07.653290+00:00",
        "meta_object_name": "GALAXY 32 (G-32)",
        "meta_object_id": "2022-153B",
        "meta_epoch": "2025-12-21T04:12:15.832800",
        "meta_mean_motion": 1.00270554,
        "meta_eccentricity": 0.0001949,
        "meta_inclination": 0.0108,
        "meta_ra_of_asc_node": 337.5471,
        "meta_arg_of_pericenter": 342.4382,
        "meta_mean_anomaly": 102.082,
        "meta_ephemeris_type": 0,
        "meta_classification_type": "U",
        "meta_norad_cat_id": 54244,
        "meta_element_set_no": 999,
        "meta_rev_at_epoch": 1135,
        "meta_bstar": 0,
        "meta_mean_motion_dot": -1.51e-06,
        "meta_mean_motion_ddot": 0,
        "tle_line1": "1 54244U 22153B   25355.17518325 -.00000151  00000+0  00000+0 0  9990",
        "tle_line2": "2 54244   0.0108 337.5471 0001949 342.4382 102.0820  1.00270554 11356"
      },
      "geometry": {
        "type": "Point",
        "coordinates": [
          -50.05483142384286,
          -0.021381015018914182
        ]
      }
    }
  ]
}